start=new Date('2022-11-14T00:00:00.000Z').valueOf();
sats=[{"ARG_OF_PERICENTER":"74.7224","TLE_LINE1":"1 48580U 21041AD  22317.78928042  .00000296  00000-0  38770-4 0  9994","GP_ID":"217690797","RA_OF_ASC_NODE":"147.0578","REV_AT_EPOCH":"8289","ELEMENT_SET_NO":"999","CENTER_NAME":"EARTH","APOAPSIS":"548.209","COUNTRY_CODE":"US","REF_FRAME":"TEME","FILE":"3653957","RCS_SIZE":"LARGE","MEAN_ANOMALY":"285.3927","OBJECT_TYPE":"PAYLOAD","EPOCH":"2022-11-13T18:56:33.828288","OBJECT_NAME":"STARLINK-2234","MEAN_ELEMENT_THEORY":"SGP4","NORAD_CAT_ID":"48580","TIME_SYSTEM":"UTC","TLE_LINE2":"2 48580  53.0529 147.0578 0001463  74.7224 285.3927 15.06405745 82893","BSTAR":"0.00003877000000","DECAY_DATE":null,"SITE":"AFETR","MEAN_MOTION":"15.06405745","OBJECT_ID":"2021-041AD","CLASSIFICATION_TYPE":"U","ECCENTRICITY":"0.00014630","INCLINATION":"53.0529","LAUNCH_DATE":"2021-05-15","SEMIMAJOR_AXIS":"6925.331","EPHEMERIS_TYPE":"0","PERIOD":"95.592","MEAN_MOTION_DOT":"0.00000296","MEAN_MOTION_DDOT":"0.0000000000000","PERIAPSIS":"546.183"},{"OBJECT_ID":"2021-041AE","SITE":"AFETR","MEAN_MOTION":"15.06401905","CLASSIFICATION_TYPE":"U","TLE_LINE2":"2 48581  53.0528 137.2229 0001277 100.4874 259.6259 15.06401905 83031","BSTAR":"0.00018004000000","MEAN_ELEMENT_THEORY":"SGP4","NORAD_CAT_ID":"48581","TIME_SYSTEM":"UTC","DECAY_DATE":null,"PERIOD":"95.592","MEAN_MOTION_DDOT":"0.0000000000000","PERIAPSIS":"546.323","MEAN_MOTION_DOT":"0.00002401","LAUNCH_DATE":"2021-05-15","SEMIMAJOR_AXIS":"6925.343","INCLINATION":"53.0528","ECCENTRICITY":"0.00012770","EPHEMERIS_TYPE":"0","ELEMENT_SET_NO":"999","CENTER_NAME":"EARTH","APOAPSIS":"548.092","ARG_OF_PERICENTER":"100.4874","REV_AT_EPOCH":"8303","TLE_LINE1":"1 48581U 21041AE  22317.75060160  .00002401  00000-0  18004-3 0  9997","GP_ID":"217691546","RA_OF_ASC_NODE":"137.2229","RCS_SIZE":"LARGE","OBJECT_TYPE":"PAYLOAD","MEAN_ANOMALY":"259.6259","EPOCH":"2022-11-13T18:00:51.978240","OBJECT_NAME":"STARLINK-2235","REF_FRAME":"TEME","FILE":"3653957","COUNTRY_CODE":"US"},{"MEAN_MOTION_DDOT":"0.0000000000000","PERIAPSIS":"546.156","MEAN_MOTION_DOT":"0.00004252","PERIOD":"95.591","EPHEMERIS_TYPE":"0","LAUNCH_DATE":"2021-05-15","SEMIMAJOR_AXIS":"6925.302","ECCENTRICITY":"0.00014590","INCLINATION":"53.0533","CLASSIFICATION_TYPE":"U","OBJECT_ID":"2021-041AF","SITE":"AFETR","MEAN_MOTION":"15.06415304","DECAY_DATE":null,"TLE_LINE2":"2 48582  53.0533 137.4656 0001459  88.4429 271.6728 15.06415304 83029","BSTAR":"0.00030408000000","MEAN_ELEMENT_THEORY":"SGP4","NORAD_CAT_ID":"48582","TIME_SYSTEM":"UTC","EPOCH":"2022-11-13T17:34:21.882144","OBJECT_NAME":"STARLINK-2236","RCS_SIZE":"LARGE","MEAN_ANOMALY":"271.6728","OBJECT_TYPE":"PAYLOAD","REF_FRAME":"TEME","FILE":"3653957","COUNTRY_CODE":"US","CENTER_NAME":"EARTH","APOAPSIS":"548.177","ELEMENT_SET_NO":"999","REV_AT_EPOCH":"8302","TLE_LINE1":"1 48582U 21041AF  22317.73219771  .00004252  00000-0  30408-3 0  9998","RA_OF_ASC_NODE":"137.4656","GP_ID":"217692297","ARG_OF_PERICENTER":"88.4429"},{"CLASSIFICATION_TYPE":"U","MEAN_MOTION":"15.06392260","SITE":"AFETR","OBJECT_ID":"2021-041AG","DECAY_DATE":null,"NORAD_CAT_ID":"48583","TIME_SYSTEM":"UTC","MEAN_ELEMENT_THEORY":"SGP4","BSTAR":"-0.00019117000000","TLE_LINE2":"2 48583  53.0531 181.9878 0001704  75.1336 284.9841 15.06392260 82400","MEAN_MOTION_DOT":"-0.00003127","PERIAPSIS":"546.057","MEAN_MOTION_DDOT":"0.0000000000000","PERIOD":"95.593","EPHEMERIS_TYPE":"0","ECCENTRICITY":"0.00017040","INCLINATION":"53.0531","LAUNCH_DATE":"2021-05-15","SEMIMAJOR_AXIS":"6925.372","APOAPSIS":"548.417","CENTER_NAME":"EARTH","ELEMENT_SET_NO":"999","GP_ID":"217692549","RA_OF_ASC_NODE":"181.9878","TLE_LINE1":"1 48583U 21041AG  22317.80358875 -.00003127  00000-0 -19117-3 0  9992","REV_AT_EPOCH":"8240","ARG_OF_PERICENTER":"75.1336","OBJECT_NAME":"STARLINK-2237","EPOCH":"2022-11-13T19:17:10.068000","OBJECT_TYPE":"PAYLOAD","MEAN_ANOMALY":"284.9841","RCS_SIZE":"LARGE","COUNTRY_CODE":"US","FILE":"3653957","REF_FRAME":"TEME"},{"SITE":"AFETR","MEAN_MOTION":"15.06365584","OBJECT_ID":"2021-041AH","CLASSIFICATION_TYPE":"U","MEAN_ELEMENT_THEORY":"SGP4","TIME_SYSTEM":"UTC","NORAD_CAT_ID":"48584","TLE_LINE2":"2 48584  53.0518 182.1136 0002515  27.1936 332.9185 15.06365584 82392","BSTAR":"-0.00088756000000","DECAY_DATE":null,"PERIOD":"95.594","MEAN_MOTION_DOT":"-0.00013466","MEAN_MOTION_DDOT":"0.0000000000000","PERIAPSIS":"545.577","ECCENTRICITY":"0.00025150","INCLINATION":"53.0518","SEMIMAJOR_AXIS":"6925.454","LAUNCH_DATE":"2021-05-15","EPHEMERIS_TYPE":"0","ELEMENT_SET_NO":"999","CENTER_NAME":"EARTH","APOAPSIS":"549.061","ARG_OF_PERICENTER":"27.1936","TLE_LINE1":"1 48584U 21041AH  22317.77779519 -.00013466  00000-0 -88756-3 0  9993","RA_OF_ASC_NODE":"182.1136","GP_ID":"217691297","REV_AT_EPOCH":"8239","RCS_SIZE":"LARGE","OBJECT_TYPE":"PAYLOAD","MEAN_ANOMALY":"332.9185","EPOCH":"2022-11-13T18:40:01.504416","OBJECT_NAME":"STARLINK-2238","COUNTRY_CODE":"US","REF_FRAME":"TEME","FILE":"3653957"},{"REV_AT_EPOCH":"8239","RA_OF_ASC_NODE":"182.0643","GP_ID":"217691047","TLE_LINE1":"1 48585U 21041AJ  22317.78884267  .00001943  00000-0  14933-3 0  9993","ARG_OF_PERICENTER":"64.5173","APOAPSIS":"549.040","CENTER_NAME":"EARTH","ELEMENT_SET_NO":"999","FILE":"3653957","REF_FRAME":"TEME","COUNTRY_CODE":"US","OBJECT_NAME":"STARLINK-2240","EPOCH":"2022-11-13T18:55:56.006688","MEAN_ANOMALY":"295.6091","OBJECT_TYPE":"PAYLOAD","RCS_SIZE":"LARGE","DECAY_DATE":null,"BSTAR":"0.00014933000000","TLE_LINE2":"2 48585  53.0549 182.0643 0002655  64.5173 295.6091 15.06403853 82395","NORAD_CAT_ID":"48585","TIME_SYSTEM":"UTC","MEAN_ELEMENT_THEORY":"SGP4","CLASSIFICATION_TYPE":"U","OBJECT_ID":"2021-041AJ","MEAN_MOTION":"15.06403853","SITE":"AFETR","EPHEMERIS_TYPE":"0","LAUNCH_DATE":"2021-05-15","SEMIMAJOR_AXIS":"6925.337","INCLINATION":"53.0549","ECCENTRICITY":"0.00026550","PERIAPSIS":"545.363","MEAN_MOTION_DDOT":"0.0000000000000","MEAN_MOTION_DOT":"0.00001943","PERIOD":"95.592"},{"MEAN_MOTION_DOT":"-0.00002861","PERIAPSIS":"546.073","MEAN_MOTION_DDOT":"0.0000000000000","PERIOD":"95.592","EPHEMERIS_TYPE":"0","INCLINATION":"53.0526","ECCENTRICITY":"0.00016670","SEMIMAJOR_AXIS":"6925.362","LAUNCH_DATE":"2021-05-15","CLASSIFICATION_TYPE":"U","MEAN_MOTION":"15.06395466","SITE":"AFETR","OBJECT_ID":"2021-041AK","DECAY_DATE":null,"NORAD_CAT_ID":"48586","TIME_SYSTEM":"UTC","MEAN_ELEMENT_THEORY":"SGP4","BSTAR":"-0.00017328000000","TLE_LINE2":"2 48586  53.0526 182.0898 0001667  70.7745 289.3424 15.06395466 82399","OBJECT_NAME":"STARLINK-2241","EPOCH":"2022-11-13T18:45:18.805824","MEAN_ANOMALY":"289.3424","OBJECT_TYPE":"PAYLOAD","RCS_SIZE":"MEDIUM","COUNTRY_CODE":"US","FILE":"3653957","REF_FRAME":"TEME","APOAPSIS":"548.382","CENTER_NAME":"EARTH","ELEMENT_SET_NO":"999","RA_OF_ASC_NODE":"182.0898","GP_ID":"217691798","TLE_LINE1":"1 48586U 21041AK  22317.78146766 -.00002861  00000-0 -17328-3 0  9992","REV_AT_EPOCH":"8239","ARG_OF_PERICENTER":"70.7745"},{"APOAPSIS":"548.299","CENTER_NAME":"EARTH","ELEMENT_SET_NO":"999","REV_AT_EPOCH":"8239","GP_ID":"217692050","RA_OF_ASC_NODE":"182.0759","TLE_LINE1":"1 48587U 21041AL  22317.78515877 -.00003230  00000-0 -19807-3 0  9991","ARG_OF_PERICENTER":"77.8275","OBJECT_NAME":"STARLINK-2242","EPOCH":"2022-11-13T18:50:37.717728","MEAN_ANOMALY":"282.2884","OBJECT_TYPE":"PAYLOAD","RCS_SIZE":"LARGE","FILE":"3653957","REF_FRAME":"TEME","COUNTRY_CODE":"US","CLASSIFICATION_TYPE":"U","OBJECT_ID":"2021-041AL","MEAN_MOTION":"15.06389641","SITE":"AFETR","DECAY_DATE":null,"BSTAR":"-0.00019807000000","TLE_LINE2":"2 48587  53.0519 182.0759 0001521  77.8275 282.2884 15.06389641 82393","NORAD_CAT_ID":"48587","TIME_SYSTEM":"UTC","MEAN_ELEMENT_THEORY":"SGP4","PERIAPSIS":"546.192","MEAN_MOTION_DDOT":"0.0000000000000","MEAN_MOTION_DOT":"-0.00003230","PERIOD":"95.593","EPHEMERIS_TYPE":"0","SEMIMAJOR_AXIS":"6925.380","LAUNCH_DATE":"2021-05-15","ECCENTRICITY":"0.00015210","INCLINATION":"53.0519"},{"TLE_LINE2":"2 48588  53.0535 172.1757 0001291  78.4048 281.7086 15.06394127 82538","BSTAR":"-0.00029162000000","MEAN_ELEMENT_THEORY":"SGP4","TIME_SYSTEM":"UTC","NORAD_CAT_ID":"48588","DECAY_DATE":null,"OBJECT_ID":"2021-041AM","SITE":"AFETR","MEAN_MOTION":"15.06394127","CLASSIFICATION_TYPE":"U","LAUNCH_DATE":"2021-05-15","SEMIMAJOR_AXIS":"6925.367","ECCENTRICITY":"0.00012910","INCLINATION":"53.0535","EPHEMERIS_TYPE":"0","PERIOD":"95.593","MEAN_MOTION_DDOT":"0.0000000000000","PERIAPSIS":"546.337","MEAN_MOTION_DOT":"-0.00004622","ARG_OF_PERICENTER":"78.4048","REV_AT_EPOCH":"8253","TLE_LINE1":"1 48588U 21041AM  22317.76396373 -.00004622  00000-0 -29162-3 0  9999","GP_ID":"217690798","RA_OF_ASC_NODE":"172.1757","ELEMENT_SET_NO":"999","CENTER_NAME":"EARTH","APOAPSIS":"548.126","REF_FRAME":"TEME","FILE":"3653957","COUNTRY_CODE":"US","RCS_SIZE":"LARGE","OBJECT_TYPE":"PAYLOAD","MEAN_ANOMALY":"281.7086","EPOCH":"2022-11-13T18:20:06.466272","OBJECT_NAME":"STARLINK-2244"},{"DECAY_DATE":null,"TLE_LINE2":"2 48589  53.0523 172.1868 0001600  71.1098 289.0065 15.06402204 82532","BSTAR":"0.00002632700000","MEAN_ELEMENT_THEORY":"SGP4","NORAD_CAT_ID":"48589","TIME_SYSTEM":"UTC","CLASSIFICATION_TYPE":"U","OBJECT_ID":"2021-041AN","SITE":"AFETR","MEAN_MOTION":"15.06402204","EPHEMERIS_TYPE":"0","SEMIMAJOR_AXIS":"6925.342","LAUNCH_DATE":"2021-05-15","INCLINATION":"53.0523","ECCENTRICITY":"0.00016000","MEAN_MOTION_DDOT":"0.0000000000000","PERIAPSIS":"546.099","MEAN_MOTION_DOT":"0.00000111","PERIOD":"95.592","REV_AT_EPOCH":"8253","TLE_LINE1":"1 48589U 21041AN  22317.76027708  .00000111  00000-0  26327-4 0  9991","RA_OF_ASC_NODE":"172.1868","GP_ID":"217691547","ARG_OF_PERICENTER":"71.1098","CENTER_NAME":"EARTH","APOAPSIS":"548.315","ELEMENT_SET_NO":"999","REF_FRAME":"TEME","FILE":"3653957","COUNTRY_CODE":"US","EPOCH":"2022-11-13T18:14:47.939712","OBJECT_NAME":"STARLINK-2245","RCS_SIZE":"LARGE","MEAN_ANOMALY":"289.0065","OBJECT_TYPE":"PAYLOAD"}];
